NORAD_CAT_ID,OBJECT_NAME,OBJECT_TYPE,EPOCH,MEAN_MOTION,ECCENTRICITY,INCLINATION,RA_OF_ASC_NODE,ARG_OF_PERICENTER,MEAN_ANOMALY,BSTAR,MEAN_MOTION_DOT,MEAN_MOTION_DDOT,TLE_LINE0,TLE_LINE1,TLE_LINE2,SEMIMAJOR_AXIS,PERIOD,APOGEE,PERIGEE,DECAYED
52558.0,STARLINK-3954,PAYLOAD,2023-04-09 17:03:06,15.08852351,0.00013,53.2152,219.9965,90.2121,269.902,0.00086915,0.00013576,0.0,0 STARLINK-3954,1 52558U 22051AB  23099.71049596  .00013576  00000-0  86915-3 0  9993,2 52558  53.2152 219.9965 0001300  90.2121 269.9020 15.08852351 50871,6917.843,95.437,540.607,538.808,0.0
52558.0,STARLINK-3954,PAYLOAD,2023-04-10 08:56:58,15.0884842,0.000137,53.2155,217.024,89.4634,270.6515,0.00035491,5.366e-05,0.0,0 STARLINK-3954,1 52558U 22051AB  23100.37289575  .00005366  00000-0  35491-3 0  9992,2 52558  53.2155 217.0240 0001370  89.4634 270.6515 15.08848420 50976,6917.855,95.437,540.667,538.772,0.0
52558.0,STARLINK-3954,PAYLOAD,2023-04-10 10:32:21,15.0885061,0.0001353,53.2152,216.7267,91.8572,268.2575,0.00047323,7.254e-05,0.0,0 STARLINK-3954,1 52558U 22051AB  23100.43913522  .00007254  00000-0  47323-3 0  9990,2 52558  53.2152 216.7267 0001353  91.8572 268.2575 15.08850610 50914,6917.848,95.437,540.649,538.777,0.0
52558.0,STARLINK-3954,PAYLOAD,2023-04-10 16:53:53,15.08862758,0.0001402,53.2157,215.5374,89.4656,270.6496,0.00089883,0.00014055,0.0,0 STARLINK-3954,1 52558U 22051AB  23100.70409189  .00014055  00000-0  89883-3 0  9993,2 52558  53.2157 215.5374 0001402  89.4656 270.6496 15.08862758 50955,6917.811,95.436,540.646,538.706,0.0
52558.0,STARLINK-3954,PAYLOAD,2023-04-11 11:58:31,15.08847548,0.0001534,53.2149,211.9696,77.1498,282.9666,0.00024793,3.661e-05,0.0,0 STARLINK-3954,1 52558U 22051AB  23101.49897194  .00003661  00000-0  24793-3 0  9997,2 52558  53.2149 211.9696 0001534  77.1498 282.9666 15.08847548 51144,6917.857,95.437,540.784,538.661,0.0
52558.0,STARLINK-3954,PAYLOAD,2023-04-11 16:44:40,15.08858566,0.0001448,53.2147,211.0768,78.6129,281.5025,0.00057239,8.838e-05,0.0,0 STARLINK-3954,1 52558U 22051AB  23101.69768874  .00008838  00000-0  57239-3 0  9993,2 52558  53.2147 211.0768 0001448  78.6129 281.5025 15.08858566 51106,6917.824,95.436,540.69,538.687,0.0
52558.0,STARLINK-3954,PAYLOAD,2023-04-12 13:24:41,15.08842176,0.0001389,53.2152,207.2106,97.1285,262.9865,0.0002341,3.44e-05,0.0,0 STARLINK-3954,1 52558U 22051AB  23102.55881216  .00003440  00000-0  23410-3 0  9993,2 52558  53.2152 207.2106 0001389  97.1285 262.9865 15.08842176 51237,6917.874,95.437,540.7,538.778,0.0
52558.0,STARLINK-3954,PAYLOAD,2023-04-13 00:32:23,15.08836614,0.0001952,53.2136,205.1317,75.712,284.4089,9.4985e-05,1.224e-05,0.0,0 STARLINK-3954,1 52558U 22051AB  23103.02249610  .00001224  00000-0  94985-4 0  9996,2 52558  53.2136 205.1317 0001952  75.7120 284.4089 15.08836614 51301,6917.891,95.438,541.106,538.405,0.0
52558.0,STARLINK-3954,PAYLOAD,2023-04-14 09:55:29,15.08840331,0.0001078,53.2165,198.8863,83.5476,276.5639,0.00038823,5.896e-05,0.0,0 STARLINK-3954,1 52558U 22051AB  23104.41353616  .00005896  00000-0  38823-3 0  9999,2 52558  53.2165 198.8863 0001078  83.5476 276.5639 15.08840331 51581,6917.879,95.438,540.49,538.999,0.0
52558.0,STARLINK-3954,PAYLOAD,2023-04-14 11:30:52,15.08846779,0.0001252,53.2148,198.5863,109.1036,251.0092,0.00058376,9.017e-05,0.0,0 STARLINK-3954,1 52558U 22051AB  23104.47977436  .00009017  00000-0  58376-3 0  9991,2 52558  53.2148 198.5863 0001252 109.1036 251.0092 15.08846779 51527,6917.86,95.437,540.591,538.859,0.0
52558.0,STARLINK-3954,PAYLOAD,2023-04-15 12:57:02,15.08849067,0.0001377,53.2169,193.8302,111.1584,248.9556,0.00044264,6.765e-05,0.0,0 STARLINK-3954,1 52558U 22051AB  23105.53961402  .00006765  00000-0  44264-3 0  9993,2 52558  53.2169 193.8302 0001377 111.1584 248.9556 15.08849067 51753,6917.853,95.437,540.67,538.765,0.0
52558.0,STARLINK-3954,PAYLOAD,2023-04-16 12:47:49,15.08840863,0.0001333,53.2167,189.37,109.6485,250.4651,8.2033e-05,1.018e-05,0.0,0 STARLINK-3954,1 52558U 22051AB  23106.53321649  .00001018  00000-0  82033-4 0  9990,2 52558  53.2167 189.3700 0001333 109.6485 250.4651 15.08840863 51835,6917.878,95.438,540.665,538.821,0.0
52558.0,STARLINK-3954,PAYLOAD,2023-04-17 12:38:37,15.08835095,0.0001275,53.2166,184.9092,98.8736,261.24,2.4334e-05,9.9e-07,0.0,0 STARLINK-3954,1 52558U 22051AB  23107.52682137  .00000099  00000-0  24334-4 0  9990,2 52558  53.2166 184.9092 0001275  98.8736 261.2400 15.08835095 52050,6917.895,95.438,540.642,538.878,0.0
52558.0,STARLINK-3954,PAYLOAD,2023-04-17 14:14:00,15.0883745,0.0001341,53.2168,184.6116,96.7413,263.3732,6.854e-05,8.03e-06,0.0,0 STARLINK-3954,1 52558U 22051AB  23107.59306112  .00000803  00000-0  68540-4 0  9993,2 52558  53.2168 184.6116 0001341  96.7413 263.3732 15.08837450 51999,6917.888,95.438,540.681,538.825,0.0
52558.0,STARLINK-3954,PAYLOAD,2023-04-18 09:18:38,15.08839454,0.0001257,53.2165,181.0433,96.7009,263.4126,0.00020962,3.05e-05,0.0,0 STARLINK-3954,1 52558U 22051AB  23108.38794491  .00003050  00000-0  20962-3 0  9994,2 52558  53.2165 181.0433 0001257  96.7009 263.4126 15.08839454 52115,6917.882,95.438,540.617,538.877,0.0
52558.0,STARLINK-3954,PAYLOAD,2023-04-18 12:29:24,15.08844373,0.0001201,53.2154,180.4478,97.1247,262.9882,0.00025913,3.839e-05,0.0,0 STARLINK-3954,1 52558U 22051AB  23108.52042255  .00003839  00000-0  25913-3 0  9990,2 52558  53.2154 180.4478 0001201  97.1247 262.9882 15.08844373 52134,6917.867,95.437,540.563,538.901,0.0
52558.0,STARLINK-3954,PAYLOAD,2023-04-19 09:09:25,15.0883998,0.0001511,53.2149,176.5836,75.5357,284.5802,0.00020708,3.009e-05,0.0,0 STARLINK-3954,1 52558U 22051AB  23109.38154797  .00003009  00000-0  20708-3 0  9996,2 52558  53.2149 176.5836 0001511  75.5357 284.5802 15.08839980 52262,6917.88,95.438,540.791,538.7,0.0
52558.0,STARLINK-3954,PAYLOAD,2023-04-19 10:44:48,15.088404,0.0001262,53.215,176.2862,67.8045,292.3081,0.00018693,2.688e-05,0.0,0 STARLINK-3954,1 52558U 22051AB  23109.44778680  .00002688  00000-0  18693-3 0  9998,2 52558  53.2150 176.2862 0001262  67.8045 292.3081 15.08840400 52277,6917.879,95.438,540.617,538.871,0.0
52558.0,STARLINK-3954,PAYLOAD,2023-04-20 04:14:03,15.08835675,0.0001337,53.2162,173.0149,90.8789,269.2356,8.4951e-05,1.064e-05,0.0,0 STARLINK-3954,1 52558U 22051AB  23110.17643003  .00001064  00000-0  84951-4 0  9998,2 52558  53.2162 173.0149 0001337  90.8789 269.2356 15.08835675 52453,6917.894,95.438,540.684,538.834,0.0
52558.0,STARLINK-3954,PAYLOAD,2023-04-20 09:00:13,15.08831966,0.000153,53.2161,172.1239,76.5526,283.5636,-1.9986e-05,-6.06e-06,0.0,0 STARLINK-3954,1 52558U 22051AB  23110.37515412 -.00000606  00000-0 -19986-4 0  9991,2 52558  53.2161 172.1239 0001530  76.5526 283.5636 15.08831966 52412,6917.905,95.438,540.828,538.712,0.0
52558.0,STARLINK-3954,PAYLOAD,2023-04-20 10:35:35,15.0884277,0.0001533,53.2161,171.8266,78.8427,281.2737,-0.0003183,-5.351e-05,0.0,0 STARLINK-3954,1 52558U 22051AB  23110.44138822 -.00005351  00000-0 -31830-3 0  9998,2 52558  53.2161 171.8266 0001533  78.8427 281.2737 15.08842770 52429,6917.872,95.437,540.797,538.676,0.0
52558.0,STARLINK-3954,PAYLOAD,2023-04-21 04:04:51,15.0882065,0.0001347,53.2159,168.5534,90.3143,269.8004,0.0002959,4.422e-05,0.0,0 STARLINK-3954,1 52558U 22051AB  23111.17003734  .00004422  00000-0  29590-3 0  9998,2 52558  53.2159 168.5534 0001347  90.3143 269.8004 15.08820650 52606,6917.94,95.439,540.736,538.873,0.0
52558.0,STARLINK-3954,PAYLOAD,2023-04-21 12:01:46,15.08838381,0.0001553,53.2158,167.0666,91.7295,268.3875,7.0328e-05,8.31e-06,0.0,0 STARLINK-3954,1 52558U 22051AB  23111.50123152  .00000831  00000-0  70328-4 0  9998,2 52558  53.2158 167.0666 0001553  91.7295 268.3875 15.08838381 52652,6917.885,95.438,540.825,538.676,0.0
52558.0,STARLINK-3954,PAYLOAD,2023-04-21 13:37:09,15.08844212,0.0001566,53.2153,166.7669,105.0948,255.0217,-7.0759e-06,-4.01e-06,0.0,0 STARLINK-3954,1 52558U 22051AB  23111.56746844 -.00000401  00000-0 -70759-5 0  9997,2 52558  53.2153 166.7669 0001566 105.0948 255.0217 15.08844212 52590,6917.868,95.437,540.816,538.649,0.0
52558.0,STARLINK-3954,PAYLOAD,2023-04-22 13:27:55,15.08848253,0.0001443,53.215,162.308,91.5752,268.5405,0.00018017,2.581e-05,0.0,0 STARLINK-3954,1 52558U 22051AB  23112.56106142  .00002581  00000-0  18017-3 0  9995,2 52558  53.2150 162.3080 0001443  91.5752 268.5405 15.08848253 52814,6917.855,95.437,540.718,538.722,0.0
52558.0,STARLINK-3954,PAYLOAD,2023-04-22 19:49:29,15.0883416,0.0001655,53.2157,161.1172,90.4594,269.6588,5.9735e-05,6.63e-06,0.0,0 STARLINK-3954,1 52558U 22051AB  23112.82603443  .00000663  00000-0  59735-4 0  9992,2 52558  53.2157 161.1172 0001655  90.4594 269.6588 15.08834160 52857,6917.898,95.438,540.908,538.618,0.0
52558.0,STARLINK-3954,PAYLOAD,2023-04-23 13:18:44,15.08830519,0.0001262,53.2159,157.8479,93.3267,266.7869,-2.8202e-05,-7.37e-06,0.0,0 STARLINK-3954,1 52558U 22051AB  23113.55468141 -.00000737  00000-0 -28202-4 0  9996,2 52558  53.2159 157.8479 0001262  93.3267 266.7869 15.08830519 52892,6917.909,95.438,540.647,538.901,0.0
52558.0,STARLINK-3954,PAYLOAD,2023-04-24 03:37:10,15.08859063,0.0001279,53.217,155.1717,96.0881,264.0257,0.00013308,1.832e-05,0.0,0 STARLINK-3954,1 52558U 22051AB  23114.15082110  .00001832  00000-0  13308-3 0  9996,2 52558  53.2170 155.1717 0001279  96.0881 264.0257 15.08859063 53057,6917.822,95.436,540.572,538.802,0.0
52558.0,STARLINK-3954,PAYLOAD,2023-04-25 11:24:54,15.08830282,0.0001152,53.2147,149.224,95.8499,264.2624,-0.00010432,-1.947e-05,0.0,0 STARLINK-3954,1 52558U 22051AB  23115.47563282 -.00001947  00000-0 -10432-3 0  9990,2 52558  53.2147 149.2240 0001152  95.8499 264.2624 15.08830282 53252,6917.91,95.438,540.572,538.978,0.0
52558.0,STARLINK-3954,PAYLOAD,2023-04-25 13:00:17,15.08829305,0.0001227,53.2152,148.9259,95.2114,264.9018,-7.7995e-05,-1.529e-05,0.0,0 STARLINK-3954,1 52558U 22051AB  23115.54187420 -.00001529  00000-0 -77995-4 0  9998,2 52558  53.2152 148.9259 0001227  95.2114 264.9018 15.08829305 53196,6917.913,95.438,540.627,538.929,0.0
